OBJECT_NAME,OBJECT_ID,EPOCH,MEAN_MOTION,ECCENTRICITY,INCLINATION,RA_OF_ASC_NODE,ARG_OF_PERICENTER,MEAN_ANOMALY,EPHEMERIS_TYPE,CLASSIFICATION_TYPE,NORAD_CAT_ID,ELEMENT_SET_NO,REV_AT_EPOCH,BSTAR,MEAN_MOTION_DOT,MEAN_MOTION_DDOT
EUTELSAT 53A,2014-064A,2026-06-11T20:20:27.715200,1.00271372,.0000894,0.0151,302.5063,248.4151,67.3924,0,U,40277,999,4151,0,.114E-5,0
GSAT-16,2014-078A,2026-06-11T16:55:49.132128,1.00272739,.0007601,0.0750,91.6836,354.4128,122.9886,0,U,40332,999,4205,0,.101E-5,0
DIRECTV 14,2014-078B,2026-06-10T06:23:38.662080,1.00270829,.00001882,0.0092,5.4718,266.0574,343.7738,0,U,40333,999,4197,0,-.108E-5,0
YAMAL 401,2014-082A,2026-06-11T08:32:26.006784,1.00269130,.0000623,0.0165,302.1572,218.8270,316.7771,0,U,40345,999,4186,0,0,0
ASTRA 2G,2014-089A,2026-06-11T16:09:24.098112,1.00272171,.0004735,0.0545,22.7963,39.0028,108.7549,0,U,40364,999,4191,0,.166E-5,0
FENGYUN 2G,2014-090A,2026-06-11T18:51:06.514848,1.00274998,.0003763,5.6239,72.8828,152.7025,56.9684,0,U,40367,999,4194,0,-.29E-5,0
MUOS-3,2015-002A,2026-06-11T08:02:28.209408,1.00271867,.0051677,4.5101,43.5014,178.3289,143.0345,0,U,40374,999,4152,0,-.114E-5,0
INMARSAT 5-F2,2015-005A,2026-06-10T07:53:52.601856,1.00271617,.00004827,0.0182,351.4709,250.7950,79.8962,0,U,40384,999,4092,0,-.268E-5,0
ABS-3A,2015-010A,2026-06-10T16:41:53.789280,1.00272202,.00021147,0.0322,54.3406,336.4101,115.7456,0,U,40424,999,4131,0,0,0
EUTELSAT 115 WEST B,2015-010B,2026-06-10T16:10:05.657376,1.00273831,.0000059,0.0216,160.6232,220.5162,5.5168,0,U,40425,999,4132,0,-.8E-7,0
EXPRESS-AM7,2015-012A,2026-06-11T13:26:05.518176,1.00274095,.0003087,0.0178,324.7552,128.2301,48.4735,0,U,40505,999,4095,0,.167E-5,0
BEIDOU-3S IGSO-1S,2015-019A,2026-06-11T20:31:05.982240,1.00251574,.00388,49.2064,295.5276,190.7165,173.6268,0,U,40549,999,4102,0,-.18E-5,0
THOR 7,2015-022A,2026-06-11T16:39:47.543328,1.00271393,.0002463,0.0408,130.0799,312.0007,67.2480,0,U,40613,999,4076,0,.8E-7,0
TURKMENALEM52E/MONACOSAT,2015-023A,2026-06-11T13:29:35.183328,1.00273833,.0002774,0.0184,52.2071,29.6428,72.4971,0,U,40617,999,4079,0,.12E-5,0
DIRECTV 15,2015-026A,2026-06-11T16:10:42.830112,1.00269288,.0000635,0.0180,10.3830,273.8943,115.5426,0,U,40663,999,4040,0,-.86E-6,0
SKY MEXICO-1,2015-026B,2026-06-11T12:52:17.814720,1.00270302,.0002093,0.0185,327.3821,135.5940,271.1791,0,U,40664,999,4039,0,-.217E-5,0
METEOSAT-11 (MSG-4),2015-034A,2026-06-11T16:42:47.255328,1.00278631,.0001744,3.1883,71.1420,7.6014,81.5005,0,U,40732,999,716,0,.79E-6,0
STAR ONE C4,2015-034B,2026-06-11T12:54:47.576160,1.00271663,.000213,0.0276,22.4067,47.1805,314.0060,0,U,40733,999,3995,0,-.248E-5,0
WGS F7 (USA 263),2015-036A,2026-06-11T19:12:35.786016,1.00270545,.0000473,0.0021,356.3992,322.8377,44.0397,0,U,40746,999,3981,0,.34E-6,0
INTELSAT 34 (IS-34),2015-039A,2026-06-11T07:50:51.821088,1.00269705,.000032,0.0095,328.8375,355.2995,357.7670,0,U,40874,999,3957,0,-.268E-5,0
EUTELSAT 8 WEST B,2015-039B,2026-06-11T16:37:47.734176,1.00271607,.0003901,0.0640,3.1182,74.2743,64.0898,0,U,40875,999,3960,0,-.49E-6,0
GSAT-6,2015-041A,2026-06-11T17:03:33.388704,1.00271018,.0003438,1.9059,82.6621,353.2094,162.5873,0,U,40880,999,3954,0,-.144E-5,0
INMARSAT 5-F3,2015-042A,2026-06-10T15:51:22.451328,1.00269180,.00002032,0.0181,358.7886,177.1745,140.5378,0,U,40882,999,3950,0,.68E-6,0
MUOS-4,2015-044A,2026-06-11T17:01:26.092128,1.00271312,.0059209,4.3192,42.2038,4.8412,183.3932,0,U,40887,999,3950,0,-.8E-6,0
TJS-1,2015-046A,2026-06-11T19:10:51.743136,1.00271564,.0005558,0.3088,84.9533,356.9266,261.0386,0,U,40892,999,3951,0,-.139E-5,0
EXPRESS-AM8,2015-048A,2026-06-11T16:36:02.901600,1.00270973,.0000041,0.0165,310.2486,262.3517,282.4502,0,U,40895,999,3929,0,-.95E-6,0
BEIDOU-3S IGSO-2S,2015-053A,2026-06-11T18:52:10.937280,1.00260926,.0065579,49.2301,258.8486,191.9375,187.8432,0,U,40938,999,3930,0,-.147E-5,0
SKY MUSTER 1 (NBN1A),2015-054A,2026-06-10T12:14:47.243328,1.00268853,.00017052,0.0228,338.0809,111.1974,133.5327,0,U,40940,999,3919,0,0,0
ARSAT 2,2015-054B,2026-06-11T12:51:40.375008,1.00272255,.0002072,0.0200,33.3440,33.1238,305.3266,0,U,40941,999,3924,0,-.208E-5,0
MORELOS 3,2015-056A,2026-06-11T16:07:50.607264,1.00272261,.0001403,3.1825,14.9332,359.1423,14.7880,0,U,40946,999,3923,0,-.29E-6,0
APSTAR-9,2015-059A,2026-06-11T15:37:53.477760,1.00268583,.0002436,0.0206,20.1729,164.4620,91.8178,0,U,40982,999,3906,0,-.25E-5,0
TURKSAT 4B,2015-060A,2026-06-11T15:11:35.615904,1.00269550,.000228,0.0216,58.2067,7.8155,111.8403,0,U,40984,999,3904,0,.132E-5,0
